[{"OBJECT_NAME":"ELEKTRO-L 2","OBJECT_ID":"2015-074A","EPOCH":"2026-03-15T06:41:22.970976","MEAN_MOTION":1.00273414,"ECCENTRICITY":0.00028074,"INCLINATION":6.4571,"RA_OF_ASC_NODE":71.6721,"ARG_OF_PERICENTER":249.8242,"MEAN_ANOMALY":297.22,"EPHEMERIS_TYPE":0,"CLASSIFICATION_TYPE":"U","NORAD_CAT_ID":41105,"ELEMENT_SET_NO":999,"REV_AT_EPOCH":3756,"BSTAR":0,"MEAN_MOTION_DOT":-1.14e-6,"MEAN_MOTION_DDOT":0},{"OBJECT_NAME":"GSAT0209 (GALILEO 12)","OBJECT_ID":"2015-079A","EPOCH":"2026-03-14T14:22:14.487456","MEAN_MOTION":1.70474547,"ECCENTRICITY":0.00050244,"INCLINATION":55.7661,"RA_OF_ASC_NODE":103.8551,"ARG_OF_PERICENTER":323.192,"MEAN_ANOMALY":36.8517,"EPHEMERIS_TYPE":0,"CLASSIFICATION_TYPE":"U","NORAD_CAT_ID":41174,"ELEMENT_SET_NO":999,"REV_AT_EPOCH":6316,"BSTAR":0,"MEAN_MOTION_DOT":4.2e-7,"MEAN_MOTION_DDOT":0},{"OBJECT_NAME":"GSAT0208 (GALILEO 11)","OBJECT_ID":"2015-079B","EPOCH":"2026-03-13T01:25:18.997824","MEAN_MOTION":1.70474457,"ECCENTRICITY":0.00043804,"INCLINATION":55.7636,"RA_OF_ASC_NODE":103.8944,"ARG_OF_PERICENTER":323.4331,"MEAN_ANOMALY":36.6088,"EPHEMERIS_TYPE":0,"CLASSIFICATION_TYPE":"U","NORAD_CAT_ID":41175,"ELEMENT_SET_NO":999,"REV_AT_EPOCH":6355,"BSTAR":0,"MEAN_MOTION_DOT":3.0e-7,"MEAN_MOTION_DDOT":0},{"OBJECT_NAME":"GPS BIIF-12","OBJECT_ID":"2016-007A","EPOCH":"2026-03-13T03:18:14.935968","MEAN_MOTION":2.0055639,"ECCENTRICITY":0.00956473,"INCLINATION":55.4616,"RA_OF_ASC_NODE":93.266,"ARG_OF_PERICENTER":246.2279,"MEAN_ANOMALY":112.823,"EPHEMERIS_TYPE":0,"CLASSIFICATION_TYPE":"U","NORAD_CAT_ID":41328,"ELEMENT_SET_NO":999,"REV_AT_EPOCH":7391,"BSTAR":0,"MEAN_MOTION_DOT":3.0e-7,"MEAN_MOTION_DDOT":0},{"OBJECT_NAME":"GSAT0211 (GALILEO 14)","OBJECT_ID":"2016-030A","EPOCH":"2026-03-14T22:37:54.344640","MEAN_MOTION":1.70473906,"ECCENTRICITY":0.00033849,"INCLINATION":55.1274,"RA_OF_ASC_NODE":224.2841,"ARG_OF_PERICENTER":23.2273,"MEAN_ANOMALY":336.7393,"EPHEMERIS_TYPE":0,"CLASSIFICATION_TYPE":"U","NORAD_CAT_ID":41549,"ELEMENT_SET_NO":999,"REV_AT_EPOCH":6106,"BSTAR":0,"MEAN_MOTION_DOT":3.2e-7,"MEAN_MOTION_DDOT":0},{"OBJECT_NAME":"GSAT0210 (GALILEO 13)","OBJECT_ID":"2016-030B","EPOCH":"2026-03-14T14:43:41.952000","MEAN_MOTION":1.70474017,"ECCENTRICITY":0.00014774,"INCLINATION":55.1254,"RA_OF_ASC_NODE":224.2912,"ARG_OF_PERICENTER":201.7077,"MEAN_ANOMALY":158.2389,"EPHEMERIS_TYPE":0,"CLASSIFICATION_TYPE":"U","NORAD_CAT_ID":41550,"ELEMENT_SET_NO":999,"REV_AT_EPOCH":6105,"BSTAR":0,"MEAN_MOTION_DOT":3.3e-7,"MEAN_MOTION_DDOT":0},{"OBJECT_NAME":"INSAT-3DR","OBJECT_ID":"2016-054A","EPOCH":"2026-03-15T01:58:35.090976","MEAN_MOTION":1.00271936,"ECCENTRICITY":0.00127089,"INCLINATION":0.0736,"RA_OF_ASC_NODE":91.5367,"ARG_OF_PERICENTER":190.6992,"MEAN_ANOMALY":354.0875,"EPHEMERIS_TYPE":0,"CLASSIFICATION_TYPE":"U","NORAD_CAT_ID":41752,"ELEMENT_SET_NO":999,"REV_AT_EPOCH":3487,"BSTAR":0,"MEAN_MOTION_DOT":-7.8e-7,"MEAN_MOTION_DDOT":0},{"OBJECT_NAME":"GSAT0207 (GALILEO 15)","OBJECT_ID":"2016-069A","EPOCH":"2026-03-13T17:15:10.731744","MEAN_MOTION":1.70474457,"ECCENTRICITY":0.00053616,"INCLINATION":55.4358,"RA_OF_ASC_NODE":103.7267,"ARG_OF_PERICENTER":309.9075,"MEAN_ANOMALY":50.1195,"EPHEMERIS_TYPE":0,"CLASSIFICATION_TYPE":"U","NORAD_CAT_ID":41859,"ELEMENT_SET_NO":999,"REV_AT_EPOCH":5777,"BSTAR":0,"MEAN_MOTION_DOT":3.4e-7,"MEAN_MOTION_DDOT":0},{"OBJECT_NAME":"GSAT0212 (GALILEO 16)","OBJECT_ID":"2016-069B","EPOCH":"2026-03-12T23:39:35.456256","MEAN_MOTION":1.70474723,"ECCENTRICITY":0.00038845,"INCLINATION":55.4332,"RA_OF_ASC_NODE":103.7422,"ARG_OF_PERICENTER":334.9903,"MEAN_ANOMALY":25.0622,"EPHEMERIS_TYPE":0,"CLASSIFICATION_TYPE":"U","NORAD_CAT_ID":41860,"ELEMENT_SET_NO":999,"REV_AT_EPOCH":5801,"BSTAR":0,"MEAN_MOTION_DOT":2.9e-7,"MEAN_MOTION_DDOT":0},{"OBJECT_NAME":"GSAT0213 (GALILEO 17)","OBJECT_ID":"2016-069C","EPOCH":"2026-03-14T12:38:03.204672","MEAN_MOTION":1.70474947,"ECCENTRICITY":0.00054805,"INCLINATION":55.4372,"RA_OF_ASC_NODE":103.7072,"ARG_OF_PERICENTER":293.9947,"MEAN_ANOMALY":66.0255,"EPHEMERIS_TYPE":0,"CLASSIFICATION_TYPE":"U","NORAD_CAT_ID":41861,"ELEMENT_SET_NO":999,"REV_AT_EPOCH":5790,"BSTAR":0,"MEAN_MOTION_DOT":4.0e-7,"MEAN_MOTION_DDOT":0},{"OBJECT_NAME":"GSAT0214 (GALILEO 18)","OBJECT_ID":"2016-069D","EPOCH":"2026-03-12T21:54:20.393856","MEAN_MOTION":1.70474834,"ECCENTRICITY":0.0004476,"INCLINATION":55.4337,"RA_OF_ASC_NODE":103.7448,"ARG_OF_PERICENTER":297.9628,"MEAN_ANOMALY":62.0628,"EPHEMERIS_TYPE":0,"CLASSIFICATION_TYPE":"U","NORAD_CAT_ID":41862,"ELEMENT_SET_NO":999,"REV_AT_EPOCH":5800,"BSTAR":0,"MEAN_MOTION_DOT":2.8e-7,"MEAN_MOTION_DDOT":0},{"OBJECT_NAME":"GOES 16","OBJECT_ID":"2016-071A","EPOCH":"2026-03-15T06:15:40.434624","MEAN_MOTION":1.00272428,"ECCENTRICITY":0.00021687,"INCLINATION":0.1254,"RA_OF_ASC_NODE":86.8652,"ARG_OF_PERICENTER":230.0129,"MEAN_ANOMALY":205.2111,"EPHEMERIS_TYPE":0,"CLASSIFICATION_TYPE":"U","NORAD_CAT_ID":41866,"ELEMENT_SET_NO":999,"REV_AT_EPOCH":3416,"BSTAR":0,"MEAN_MOTION_DOT":-9.2e-7,"MEAN_MOTION_DDOT":0},{"OBJECT_NAME":"GSAT-17","OBJECT_ID":"2017-040B","EPOCH":"2026-03-15T02:04:04.564416","MEAN_MOTION":1.00270477,"ECCENTRICITY":0.00044833,"INCLINATION":0.022,"RA_OF_ASC_NODE":114.4189,"ARG_OF_PERICENTER":179.3694,"MEAN_ANOMALY":3.4161,"EPHEMERIS_TYPE":0,"CLASSIFICATION_TYPE":"U","NORAD_CAT_ID":42815,"ELEMENT_SET_NO":999,"REV_AT_EPOCH":3184,"BSTAR":0,"MEAN_MOTION_DOT":-2.58e-6,"MEAN_MOTION_DDOT":0},{"OBJECT_NAME":"GSAT0215 (GALILEO 19)","OBJECT_ID":"2017-079A","EPOCH":"2026-03-12T19:35:18.886848","MEAN_MOTION":1.70474604,"ECCENTRICITY":5.032e-5,"INCLINATION":55.1052,"RA_OF_ASC_NODE":224.1555,"ARG_OF_PERICENTER":355.2258,"MEAN_ANOMALY":4.7321,"EPHEMERIS_TYPE":0,"CLASSIFICATION_TYPE":"U","NORAD_CAT_ID":43055,"ELEMENT_SET_NO":999,"REV_AT_EPOCH":5134,"BSTAR":0,"MEAN_MOTION_DOT":3.7e-7,"MEAN_MOTION_DDOT":0},{"OBJECT_NAME":"GSAT0216 (GALILEO 20)","OBJECT_ID":"2017-079B","EPOCH":"2026-03-14T06:44:00.376224","MEAN_MOTION":1.70474699,"ECCENTRICITY":0.00017364,"INCLINATION":55.1052,"RA_OF_ASC_NODE":224.1154,"ARG_OF_PERICENTER":311.7748,"MEAN_ANOMALY":48.1644,"EPHEMERIS_TYPE":0,"CLASSIFICATION_TYPE":"U","NORAD_CAT_ID":43056,"ELEMENT_SET_NO":999,"REV_AT_EPOCH":5138,"BSTAR":0,"MEAN_MOTION_DOT":3.4e-7,"MEAN_MOTION_DDOT":0},{"OBJECT_NAME":"GSAT0217 (GALILEO 21)","OBJECT_ID":"2017-079C","EPOCH":"2026-03-12T17:47:52.788480","MEAN_MOTION":1.70474639,"ECCENTRICITY":0.00019481,"INCLINATION":55.1048,"RA_OF_ASC_NODE":224.1555,"ARG_OF_PERICENTER":350.8522,"MEAN_ANOMALY":9.1027,"EPHEMERIS_TYPE":0,"CLASSIFICATION_TYPE":"U","NORAD_CAT_ID":43057,"ELEMENT_SET_NO":999,"REV_AT_EPOCH":5134,"BSTAR":0,"MEAN_MOTION_DOT":3.7e-7,"MEAN_MOTION_DDOT":0},{"OBJECT_NAME":"GSAT0218 (GALILEO 22)","OBJECT_ID":"2017-079D","EPOCH":"2026-03-13T13:09:25.164288","MEAN_MOTION":1.70474604,"ECCENTRICITY":0.00020247,"INCLINATION":55.1035,"RA_OF_ASC_NODE":224.1311,"ARG_OF_PERICENTER":298.9535,"MEAN_ANOMALY":60.9828,"EPHEMERIS_TYPE":0,"CLASSIFICATION_TYPE":"U","NORAD_CAT_ID":43058,"ELEMENT_SET_NO":999,"REV_AT_EPOCH":5138,"BSTAR":0,"MEAN_MOTION_DOT":3.6e-7,"MEAN_MOTION_DDOT":0}]
